OBJECT_NAME,OBJECT_ID,EPOCH,MEAN_MOTION,ECCENTRICITY,INCLINATION,RA_OF_ASC_NODE,ARG_OF_PERICENTER,MEAN_ANOMALY,EPHEMERIS_TYPE,CLASSIFICATION_TYPE,NORAD_CAT_ID,ELEMENT_SET_NO,REV_AT_EPOCH,BSTAR,MEAN_MOTION_DOT,MEAN_MOTION_DDOT
INTELSAT 902 (IS-902),2001-039A,2026-07-02T01:45:59.606784,1.00272101,.00042983,6.1537,71.6012,27.5125,157.3906,0,U,26900,999,9084,0,-.276E-5,0
INTELSAT 904 (IS-904),2002-007A,2026-07-02T10:24:38.419200,1.00271556,.0006275,6.9556,69.0021,16.0550,320.0982,0,U,27380,999,5191,0,-.219E-5,0
DIRECTV 5 (TEMPO 1),2002-023A,2026-07-02T08:19:33.604608,1.00271742,.00035363,4.9142,75.1255,34.9369,185.1094,0,U,27426,999,8827,0,-.49E-6,0
INTELSAT 905 (IS-905),2002-027A,2026-07-02T11:33:38.649312,1.00272483,.00040113,6.7895,69.6168,32.6759,214.4348,0,U,27438,999,5151,0,.101E-5,0
GALAXY 3C (G-3C),2002-030A,2026-07-02T13:31:51.138048,1.00272065,.00019145,3.7702,77.7817,28.8727,282.0852,0,U,27445,999,4664,0,-.144E-5,0
INTELSAT 906 (IS-906),2002-041A,2026-07-02T14:01:40.298016,1.00270541,.0004081,5.8406,72.7315,10.5056,111.9429,0,U,27513,999,8718,0,.21E-6,0
GALAXY 13 (HORIZONS-1),2003-044A,2026-07-02T13:16:07.644864,1.00272262,.00016966,1.4582,83.6672,13.5458,232.3808,0,U,27954,999,4672,0,.142E-5,0
INTELSAT 10-02,2004-022A,2026-07-02T02:00:00.605376,1.00271302,.00003219,0.0388,265.6144,255.3379,148.1780,0,U,28358,999,8070,0,-.1E-7,0
DIRECTV 8,2005-019A,2026-07-02T08:14:38.642784,1.00270485,.0003334,0.0190,26.9867,86.8864,171.1311,0,U,28659,999,7722,0,0,0
GALAXY 28 (G-28),2005-022A,2026-07-02T05:17:52.099296,1.00270650,.00025367,3.3353,78.7558,18.2071,235.6688,0,U,28702,999,5212,0,-.192E-5,0
GALAXY 16 (G-16),2006-023A,2026-07-02T10:05:25.261728,1.00271883,.00027619,0.0148,112.6798,344.7452,235.3937,0,U,29236,999,7312,0,-.116E-5,0
DIRECTV 9S,2006-043A,2026-07-02T10:04:47.821152,1.00271909,.00053955,2.4578,80.7286,23.7304,226.0034,0,U,29494,999,5153,0,-.104E-5,0
GALAXY 17 (G-17),2007-016B,2026-07-02T13:34:43.362624,1.00271122,.00040226,3.0084,79.7150,21.2812,298.2768,0,U,31307,999,6995,0,-.197E-5,0
INTELSAT 11 (IS-11),2007-044B,2026-07-02T14:15:25.714368,0.99048059,.00034863,3.6031,78.4901,89.1660,24.8497,0,U,32253,999,6860,0,.94E-6,0
HORIZONS-2,2007-063B,2026-07-02T06:44:46.580352,1.00269369,.00040585,2.6388,80.4497,12.5773,214.6607,0,U,32388,999,6796,0,-.244E-5,0
DIRECTV 11,2008-013A,2026-07-02T10:05:17.774304,1.00271629,.00003793,0.0447,216.1578,259.4156,217.0321,0,U,32729,999,4574,0,-.115E-5,0
GALAXY 18 (G-18),2008-024A,2026-07-02T13:23:51.904032,1.00272114,.00031866,0.0143,54.7472,52.3051,251.5085,0,U,32951,999,4600,0,.36E-6,0
GALAXY 19 (G-19),2008-045A,2026-07-02T13:31:13.698336,1.00271530,.00029408,0.0502,249.6507,227.2246,269.5291,0,U,33376,999,6505,0,-.128E-5,0
FM-5,2009-034A,2026-07-02T06:43:47.618400,1.00272883,.00007831,0.0323,277.6962,74.9241,302.4819,0,U,35493,999,4679,0,-.19E-5,0
INTELSAT 14 (IS-14),2009-064A,2026-07-02T05:12:45.088992,1.00269734,.00027292,0.0232,295.0890,169.1235,209.2257,0,U,36097,999,6075,0,-.263E-5,0
INTELSAT 15 (IS-15),2009-067A,2026-07-02T14:23:10.365792,1.00272797,.00024952,0.0167,346.7739,114.4066,120.3937,0,U,36106,999,4138,0,-.175E-5,0
DIRECTV 12,2009-075A,2026-07-02T06:39:03.072960,1.00271870,.00003344,0.0140,126.9668,0.0217,150.3693,0,U,36131,999,4670,0,-.93E-6,0
INTELSAT 16 (IS-16),2010-006A,2026-07-02T10:11:54.639744,1.00272658,.00024728,0.0092,41.9781,75.3467,239.9198,0,U,36397,999,5980,0,-.234E-5,0
XM-5,2010-053A,2026-07-02T11:41:38.817312,1.00274106,.00025032,0.0660,267.8225,285.3516,147.5652,0,U,37185,999,5763,0,-.13E-6,0
INTELSAT 17 (IS-17),2010-065B,2026-07-02T13:05:31.123104,1.00271792,.00026522,0.0315,85.4458,36.3249,61.1692,0,U,37238,999,5340,0,0,0
INTELSAT 28 (IS-28),2011-016A,2026-07-02T10:24:30.930912,1.00272308,.00039536,1.8433,82.4463,21.7753,300.6380,0,U,37392,999,5343,0,-.215E-5,0
INTELSAT 18 (IS-18),2011-056A,2026-07-02T01:09:03.164256,1.00271269,.00020514,0.0153,323.3049,141.8735,12.1717,0,U,37834,999,5396,0,.63E-6,0
INTELSAT 22 (IS-22),2012-011A,2026-07-02T14:11:30.735744,1.00271291,.00016875,0.0162,43.7094,53.2740,108.6126,0,U,38098,999,734,0,-.48E-6,0
INTELSAT 19 (IS-19),2012-030A,2026-07-02T13:01:38.629344,1.00271589,.00033836,0.0189,14.6425,96.3853,170.9629,0,U,38356,999,5060,0,-.46E-6,0
INTELSAT 20 (IS-20),2012-043A,2026-07-02T05:43:49.609632,1.00271000,.00012503,0.0074,32.9340,148.8144,252.9806,0,U,38740,999,5089,0,-.14E-6,0
INTELSAT 21 (IS-21),2012-045A,2026-07-02T10:17:01.649184,1.00272829,.00019208,0.0290,280.0607,193.0490,263.6194,0,U,38749,999,5067,0,-.274E-5,0
